{
    "links": {
        "self": "http://www.neowsapp.com/rest/v1/neo/3843590?api_key=iIulBulltgU6a56xZRHN4H3l9WmuAYTsLGpBGhQ2"
    },
    "id": "3843590",
    "neo_reference_id": "3843590",
    "name": "(2019 QA1)",
    "designation": "2019 QA1",
    "nasa_jpl_url": "http://ssd.jpl.nasa.gov/sbdb.cgi?sstr=3843590",
    "absolute_magnitude_h": 25.2,
    "estimated_diameter": {
        "kilometers": {
            "estimated_diameter_min": 0.0242412481,
            "estimated_diameter_max": 0.0542050786
        },
        "meters": {
            "estimated_diameter_min": 24.2412481101,
            "estimated_diameter_max": 54.2050786336
        },
        "miles": {
            "estimated_diameter_min": 0.0150628086,
            "estimated_diameter_max": 0.0336814639
        },
        "feet": {
            "estimated_diameter_min": 79.5316564495,
            "estimated_diameter_max": 177.8381901842
        }
    },
    "is_potentially_hazardous_asteroid": false,
    "close_approach_data": [
        {
            "close_approach_date": "2019-08-22",
            "close_approach_date_full": "2019-Aug-22 18:32",
            "epoch_date_close_approach": 1566498720000,
            "relative_velocity": {
                "kilometers_per_second": "6.8400558121",
                "kilometers_per_hour": "24624.2009233985",
                "miles_per_hour": "15300.5208459862"
            },
            "miss_distance": {
                "astronomical": "0.0673247404",
                "lunar": "26.1893240156",
                "kilometers": "10071637.762142948",
                "miles": "6258225.5076227624"
            },
            "orbiting_body": "Earth"
        }
    ],
    "orbital_data": {
        "orbit_id": "4",
        "orbit_determination_date": "2020-01-11 04:51:56",
        "first_observation_date": "2019-08-22",
        "last_observation_date": "2019-09-05",
        "data_arc_in_days": 14,
        "observations_used": 27,
        "orbit_uncertainty": "8",
        "minimum_orbit_intersection": ".0631651",
        "jupiter_tisserand_invariant": "3.519",
        "epoch_osculation": "2458718.5",
        "eccentricity": ".5018037573868995",
        "semi_major_axis": "2.157300389643951",
        "inclination": "6.34689569559919",
        "ascending_node_longitude": "322.063656761856",
        "orbital_period": "1157.349050657281",
        "perihelion_distance": "1.074758948308394",
        "perihelion_argument": "5.777146614677569",
        "aphelion_distance": "3.239841830979508",
        "perihelion_time": "2458718.054159891948",
        "mean_anomaly": ".1386810995417221",
        "mean_motion": ".3110556834997609",
        "equinox": "J2000",
        "orbit_class": {
            "orbit_class_type": "AMO",
            "orbit_class_description": "Near-Earth asteroid orbits similar to that of 1221 Amor",
            "orbit_class_range": "1.017 AU < q (perihelion) < 1.3 AU"
        }
    },
    "is_sentry_object": false
}